GALAXY 2 (G-2)          
1 14365U 83098A   24127.84280462 -.00000050  00000+0  00000+0 0  9991
2 14365  14.1550 347.7393 0007414  95.4312 155.9943  1.00141438124503
